     2.10           G: GLONASS NAV DATA                     RINEX VERSION / TYPE
teqc  2015Jun23                         20220528 01:25:38UTCPGM / RUN BY / DATE
Linux 2.4.21-27.ELsmp|Opteron|gcc -static|Linux x86_64|=+   COMMENT
  2022     5    17   -0.000000000000D+00                    CORR TO SYSTEM TIME
                                                            END OF HEADER
11 22  5 18 13 45  0.0 3.869831562042D-05-9.094947017729D-13 4.860000000000D+04
   -2.372090039062D+04-1.133279800415D-01-4.656612873077D-09 0.000000000000D+00
    9.306498046875D+03 2.233724594116D-01-9.313225746155D-10 0.000000000000D+00
   -1.325354492188D+03 3.566769599915D+00-3.725290298462D-09 0.000000000000D+00
12 22  5 18 13 45  0.0 1.851096749306D-05-0.000000000000D+00 4.860000000000D+04
   -1.232550634766D+04-2.277582168579D+00-4.656612873077D-09 0.000000000000D+00
    1.338520312500D+04 9.062385559082D-01-1.862645149231D-09-1.000000000000D+00
   -1.784378564453D+04 2.251236915588D+00-0.000000000000D+00 0.000000000000D+00
23 22  5 18 13 45  0.0-4.111789166927D-05-9.094947017729D-13 4.860000000000D+04
   -5.831770507812D+03 2.785568237305D-01-9.313225746155D-10 0.000000000000D+00
    2.480629394531D+04-1.118516921997D-01-2.793967723846D-09 3.000000000000D+00
   -1.234035644531D+03-3.604356765747D+00-0.000000000000D+00 0.000000000000D+00
22 22  5 18 14 15  0.0-1.839241012931D-04-1.818989403546D-12 5.040000000000D+04
   -1.045324560547D+04 3.240833282471D-01-5.587935447693D-09 0.000000000000D+00
    7.671702636719D+03-2.994318008423D+00 0.000000000000D+00-3.000000000000D+00
   -2.200717285156D+04-1.189618110657D+00-0.000000000000D+00 0.000000000000D+00
 2 22  5 18 14 15  0.0 5.187429487705D-04 1.818989403546D-12 5.040000000000D+04
    1.280917431641D+04-1.552028656006D+00 3.725290298462D-09 0.000000000000D+00
    1.676713769531D+04-1.211993217468D+00-1.862645149231D-09-4.000000000000D+00
    1.442667236328D+04 2.790352821350D+00 0.000000000000D+00 0.000000000000D+00
11 22  5 18 14 15  0.0 3.869738429785D-05-9.094947017729D-13 5.040000000000D+04
   -2.318296826172D+04 6.906375885010D-01-2.793967723846D-09 0.000000000000D+00
    9.385538574219D+03-1.712598800659D-01-0.000000000000D+00 0.000000000000D+00
    5.063143066406D+03 3.485510826111D+00-3.725290298462D-09 0.000000000000D+00
12 22  5 18 14 15  0.0 1.851096749306D-05-0.000000000000D+00 5.040000000000D+04
   -1.579124658203D+04-1.552620887756D+00-5.587935447693D-09 0.000000000000D+00
    1.507621093750D+04 9.313287734985D-01-9.313225746155D-10-1.000000000000D+00
   -1.315244189453D+04 2.927403450012D+00-1.862645149231D-09 0.000000000000D+00
23 22  5 18 14 15  0.0-4.111975431442D-05-9.094947017729D-13 5.040000000000D+04
   -5.257568359375D+03 3.164615631104D-01-2.793967723846D-09 0.000000000000D+00
    2.378634716797D+04-1.017283439636D+00-1.862645149231D-09 3.000000000000D+00
   -7.590416503906D+03-3.412465095520D+00-0.000000000000D+00 0.000000000000D+00
24 22  5 18 14 15  0.0 9.434018284082D-05 1.818989403546D-12 5.040000000000D+04
    1.872002929688D+03 9.000587463379D-02 0.000000000000D+00 0.000000000000D+00
    2.417874511719D+04 1.091410636902D+00-2.793967723846D-09 2.000000000000D+00
    7.904272460938D+03-3.364747047424D+00-0.000000000000D+00 0.000000000000D+00
17 22  5 18 14 15  0.0 5.271444097161D-04 2.728484105319D-12 5.172000000000D+04
    8.794531250000D+03-9.113407135010D-02 3.725290298462D-09 0.000000000000D+00
    1.154187109375D+04 2.875573158264D+00-1.862645149231D-09 4.000000000000D+00
    2.097059277344D+04-1.547542572021D+00-0.000000000000D+00 0.000000000000D+00
 2 22  5 18 14 45  0.0 5.187466740608D-04 1.818989403546D-12 5.220000000000D+04
    9.368842285156D+03-2.252264022827D+00 2.793967723846D-09 0.000000000000D+00
    1.452799804688D+04-1.232686042786D+00-1.862645149231D-09-4.000000000000D+00
    1.883057421875D+04 2.071335792542D+00-0.000000000000D+00 0.000000000000D+00
11 22  5 18 14 45  0.0 3.869552165270D-05-9.094947017729D-13 5.220000000000D+04
   -2.133718847656D+04 1.324632644653D+00-1.862645149231D-09 0.000000000000D+00
    8.581655761719D+03-7.452411651611D-01 0.000000000000D+00 0.000000000000D+00
    1.106056738281D+04 3.135087013245D+00-3.725290298462D-09 0.000000000000D+00
12 22  5 18 14 45  0.0 1.851096749306D-05 0.000000000000D+00 5.220000000000D+04
   -1.787465673828D+04-7.607564926147D-01-5.587935447693D-09 0.000000000000D+00
    1.658308203125D+04 6.997747421265D-01-0.000000000000D+00-1.000000000000D+00
   -7.441738281250D+03 3.376496315002D+00-2.793967723846D-09 0.000000000000D+00
17 22  5 18 14 45  0.0 5.271499976516D-04 2.728484105319D-12 5.220000000000D+04
    9.008570800781D+03 3.056383132935D-01 1.862645149231D-09 0.000000000000D+00
    1.630513037109D+04 2.372653961182D+00-2.793967723846D-09 4.000000000000D+00
    1.740966552734D+04-2.383411407471D+00-0.000000000000D+00 0.000000000000D+00
23 22  5 18 14 45  0.0-4.112254828215D-05-9.094947017729D-13 5.220000000000D+04
   -4.841719726562D+03 1.072168350220D-01-3.725290298462D-09 0.000000000000D+00
    2.119510986328D+04-1.838073730469D+00-9.313225746155D-10 3.000000000000D+00
   -1.336038574219D+04-2.957050323486D+00-0.000000000000D+00 0.000000000000D+00
24 22  5 18 14 45  0.0 9.434297680855D-05 1.818989403546D-12 5.220000000000D+04
    2.164709472656D+03 1.948909759521D-01-9.313225746155D-10 0.000000000000D+00
    2.536032763672D+04 2.101449966431D-01-1.862645149231D-09 2.000000000000D+00
    1.620313964844D+03-3.572080612183D+00-0.000000000000D+00 0.000000000000D+00
13 22  5 18 14 45  0.0-2.246908843517D-05-0.000000000000D+00 5.322000000000D+04
   -4.512270996094D+03-2.213767051697D+00-4.656612873077D-09 0.000000000000D+00
    1.497077734375D+04 1.645741462708D+00-0.000000000000D+00-2.000000000000D+00
   -2.016871142578D+04 1.717942237854D+00 0.000000000000D+00 0.000000000000D+00
13 22  5 18 15 15  0.0-2.247001975775D-05-0.000000000000D+00 5.400000000000D+04
   -7.933379394531D+03-1.570618629456D+00-5.587935447693D-09 0.000000000000D+00
    1.792495654297D+04 1.591835021973D+00 0.000000000000D+00-2.000000000000D+00
   -1.633769970703D+04 2.511178970337D+00-9.313225746155D-10 0.000000000000D+00
 2 22  5 18 15 15  0.0 5.187494680285D-04 1.818989403546D-12 5.400000000000D+04
    4.798304687500D+03-2.791113853455D+00 1.862645149231D-09 0.000000000000D+00
    1.247292333984D+04-1.015640258789D+00-1.862645149231D-09-4.000000000000D+00
    2.178777880859D+04 1.193219184875D+00-9.313225746155D-10 0.000000000000D+00
11 22  5 18 15 15  0.0 3.869365900755D-05-9.094947017729D-13 5.400000000000D+04
   -1.856141259766D+04 1.714816093445D+00-0.000000000000D+00 0.000000000000D+00
    6.648261230469D+03-1.409241676331D+00 0.000000000000D+00 0.000000000000D+00
    1.620388818359D+04 2.542674064636D+00-3.725290298462D-09 0.000000000000D+00
12 22  5 18 15 15  0.0 1.851096749306D-05 0.000000000000D+00 5.400000000000D+04
   -1.855880957031D+04-1.655864715576D-02-4.656612873077D-09 0.000000000000D+00
    1.744756005859D+04 2.233018875122D-01 0.000000000000D+00-1.000000000000D+00
   -1.154511230469D+03 3.563855171204D+00-3.725290298462D-09 0.000000000000D+00
17 22  5 18 15 15  0.0 5.271565169096D-04 2.728484105319D-12 5.400000000000D+04
    9.785371582031D+03 5.211019515991D-01 9.313225746155D-10 0.000000000000D+00
    1.994757128906D+04 1.644464492798D+00-2.793967723846D-09 4.000000000000D+00
    1.250105175781D+04-3.035191535950D+00-0.000000000000D+00 0.000000000000D+00
23 22  5 18 15 15  0.0-4.112441092730D-05-9.094947017729D-13 5.400000000000D+04
   -4.991020996094D+03-2.998371124268D-01-4.656612873077D-09 0.000000000000D+00
    1.728565869141D+04-2.465911865234D+00 0.000000000000D+00 3.000000000000D+00
   -1.809853515625D+04-2.273454666138D+00-0.000000000000D+00 0.000000000000D+00
24 22  5 18 15 15  0.0 9.434670209885D-05 1.818989403546D-12 5.400000000000D+04
    2.425295410156D+03 5.413055419922D-02-2.793967723846D-09 0.000000000000D+00
    2.493023339844D+04-6.794776916504D-01-9.313225746155D-10 2.000000000000D+00
   -4.788979492188D+03-3.503073692322D+00-0.000000000000D+00 0.000000000000D+00
13 22  5 18 15 45  0.0-2.247001975775D-05-0.000000000000D+00 5.580000000000D+04
   -1.013943408203D+04-8.824625015259D-01-5.587935447693D-09 0.000000000000D+00
    2.053701708984D+04 1.265526771545D+00 9.313225746155D-10-2.000000000000D+00
   -1.124497363281D+04 3.110739707947D+00-1.862645149231D-09 0.000000000000D+00
 2 22  5 18 15 45  0.0 5.187531933188D-04 9.094947017729D-13 5.580000000000D+04
   -5.298740234375D+02-3.082365989685D+00 1.862645149231D-09 0.000000000000D+00
    1.097452783203D+04-6.281604766846D-01-1.862645149231D-09-4.000000000000D+00
    2.307075537109D+04 2.229957580566D-01-1.862645149231D-09 0.000000000000D+00
12 22  5 18 15 45  0.0 1.851096749306D-05 0.000000000000D+00 5.580000000000D+04
   -1.802509570312D+04 5.772285461426D-01-2.793967723846D-09 0.000000000000D+00
    1.727246533203D+04-4.428291320801D-01 9.313225746155D-10-1.000000000000D+00
    5.222143554688D+03 3.475278854370D+00-3.725290298462D-09 0.000000000000D+00
17 22  5 18 15 45  0.0 5.271621048450D-04 2.728484105319D-12 5.580000000000D+04
    1.073925097656D+04 4.958953857422D-01-0.000000000000D+00 0.000000000000D+00
    2.214960107422D+04 7.908782958984D-01-1.862645149231D-09 4.000000000000D+00
    6.624247070312D+03-3.452133178711D+00-0.000000000000D+00 0.000000000000D+00
23 22  5 18 15 45  0.0-4.112627357244D-05-9.094947017729D-13 5.580000000000D+04
   -5.988673828125D+03-8.187112808228D-01-4.656612873077D-09 0.000000000000D+00
    1.248167333984D+04-2.822104454041D+00 1.862645149231D-09 3.000000000000D+00
   -2.143934960938D+04-1.414523124695D+00-0.000000000000D+00 0.000000000000D+00
24 22  5 18 15 45  0.0 9.434949606657D-05 1.818989403546D-12 5.580000000000D+04
    2.224334472656D+03-3.106107711792D-01-3.725290298462D-09 0.000000000000D+00
    2.297921386719D+04-1.461359024048D+00-0.000000000000D+00 2.000000000000D+00
   -1.082764355469D+04-3.162929534912D+00-0.000000000000D+00 0.000000000000D+00
